{
  "type": "FeatureCollection",
  "features": [
    {
      "type": "Feature",
      "properties": {
        "norad_id": 66583,
        "name": "STARLINK-35941",
        "group": "last-30-days",
        "lat": -28.398683546801447,
        "lon": 17.269031857516502,
        "alt_km": 373.50262444421605,
        "timestamp": "2025-12-05T19:30:24.351259+00:00",
        "meta_object_name": "STARLINK-35941",
        "meta_object_id": "2025-268AC",
        "meta_epoch": "2025-12-05T06:00:02.000160",
        "meta_mean_motion": 15.6785838,
        "meta_eccentricity": 0.00018737,
        "meta_inclination": 42.9997,
        "meta_ra_of_asc_node": 165.1753,
        "meta_arg_of_pericenter": 264.1717,
        "meta_mean_anomaly": 22.2713,
        "meta_ephemeris_type": 0,
        "meta_classification_type": "U",
        "meta_norad_cat_id": 66583,
        "meta_element_set_no": 999,
        "meta_rev_at_epoch": 346,
        "meta_bstar": -0.019857669,
        "meta_mean_motion_dot": -0.0198555,
        "meta_mean_motion_ddot": 0,
        "tle_line1": "1 66583U 25268AC  25339.25002315 -.01985550  00000+0 -19858-1 0  9997",
        "tle_line2": "2 66583  42.9997 165.1753 0001873 264.1717  22.2713 15.67858380  3466"
      },
      "geometry": {
        "type": "Point",
        "coordinates": [
          17.269031857516502,
          -28.398683546801447
        ]
      }
    },
    {
      "type": "Feature",
      "properties": {
        "norad_id": 66584,
        "name": "STARLINK-35939",
        "group": "last-30-days",
        "lat": -29.44974499820345,
        "lon": 19.093781210608316,
        "alt_km": 373.55836352855476,
        "timestamp": "2025-12-05T19:30:24.351273+00:00",
        "meta_object_name": "STARLINK-35939",
        "meta_object_id": "2025-268AD",
        "meta_epoch": "2025-12-05T06:00:02.000160",
        "meta_mean_motion": 15.67861243,
        "meta_eccentricity": 0.00018259,
        "meta_inclination": 42.9996,
        "meta_ra_of_asc_node": 165.1709,
        "meta_arg_of_pericenter": 263.359,
        "meta_mean_anomaly": 25.0027,
        "meta_ephemeris_type": 0,
        "meta_classification_type": "U",
        "meta_norad_cat_id": 66584,
        "meta_element_set_no": 999,
        "meta_rev_at_epoch": 346,
        "meta_bstar": -0.019928133,
        "meta_mean_motion_dot": -0.01991919,
        "meta_mean_motion_ddot": 0,
        "tle_line1": "1 66584U 25268AD  25339.25002315 -.01991919  00000+0 -19928-1 0  9992",
        "tle_line2": "2 66584  42.9996 165.1709 0001825 263.3590  25.0027 15.67861243  3465"
      },
      "geometry": {
        "type": "Point",
        "coordinates": [
          19.093781210608316,
          -29.44974499820345
        ]
      }
    },
    {
      "type": "Feature",
      "properties": {
        "norad_id": 66585,
        "name": "STARLINK-35963",
        "group": "last-30-days",
        "lat": -30.477626528056142,
        "lon": 20.9599888712009,
        "alt_km": 373.61992958998326,
        "timestamp": "2025-12-05T19:30:24.351285+00:00",
        "meta_object_name": "STARLINK-35963",
        "meta_object_id": "2025-268AE",
        "meta_epoch": "2025-12-05T06:00:02.000160",
        "meta_mean_motion": 15.6785402,
        "meta_eccentricity": 0.00017306,
        "meta_inclination": 42.9997,
        "meta_ra_of_asc_node": 165.1661,
        "meta_arg_of_pericenter": 263.1096,
        "meta_mean_anomaly": 27.1725,
        "meta_ephemeris_type": 0,
        "meta_classification_type": "U",
        "meta_norad_cat_id": 66585,
        "meta_element_set_no": 999,
        "meta_rev_at_epoch": 346,
        "meta_bstar": -0.0198165,
        "meta_mean_motion_dot": -0.01981493,
        "meta_mean_motion_ddot": 0,
        "tle_line1": "1 66585U 25268AE  25339.25002315 -.01981493  00000+0 -19817-1 0  9996",
        "tle_line2": "2 66585  42.9997 165.1661 0001730 263.1096  27.1725 15.67854020  3461"
      },
      "geometry": {
        "type": "Point",
        "coordinates": [
          20.9599888712009,
          -30.477626528056142
        ]
      }
    },
    {
      "type": "Feature",
      "properties": {
        "norad_id": 66586,
        "name": "TJS-21",
        "group": "last-30-days",
        "lat": 49.99916504270739,
        "lon": -113.19977042592001,
        "alt_km": 24749.415410729594,
        "timestamp": "2025-12-05T19:30:24.351298+00:00",
        "meta_object_name": "TJS-21",
        "meta_object_id": "2025-269A",
        "meta_epoch": "2025-11-22T00:38:56.616288",
        "meta_mean_motion": 2.0099221,
        "meta_eccentricity": 0.75179873,
        "meta_inclination": 51.0366,
        "meta_ra_of_asc_node": 174.7096,
        "meta_arg_of_pericenter": 225.0489,
        "meta_mean_anomaly": 41.6572,
        "meta_ephemeris_type": 0,
        "meta_classification_type": "U",
        "meta_norad_cat_id": 66586,
        "meta_element_set_no": 999,
        "meta_rev_at_epoch": 2,
        "meta_bstar": 0.00053569978,
        "meta_mean_motion_dot": 3.197e-05,
        "meta_mean_motion_ddot": 0,
        "tle_line1": "1 66586U 25269A   25326.02704417  .00003197  00000+0  53570-3 0  9990",
        "tle_line2": "2 66586  51.0366 174.7096 7517987 225.0489  41.6572  2.00992210    24"
      },
      "geometry": {
        "type": "Point",
        "coordinates": [
          -113.19977042592001,
          49.99916504270739
        ]
      }
    },
    {
      "type": "Feature",
      "properties": {
        "norad_id": 66587,
        "name": "CZ-3B R/B",
        "group": "last-30-days",
        "lat": 35.980983383287146,
        "lon": -44.44194225418958,
        "alt_km": 6141.270474068845,
        "timestamp": "2025-12-05T19:30:24.351317+00:00",
        "meta_object_name": "CZ-3B R/B",
        "meta_object_id": "2025-269B",
        "meta_epoch": "2025-12-02T10:16:46.437600",
        "meta_mean_motion": 2.0223182,
        "meta_eccentricity": 0.75203475,
        "meta_inclination": 51.3575,
        "meta_ra_of_asc_node": 172.0321,
        "meta_arg_of_pericenter": 226.8728,
        "meta_mean_anomaly": 39.3228,
        "meta_ephemeris_type": 0,
        "meta_classification_type": "U",
        "meta_norad_cat_id": 66587,
        "meta_element_set_no": 999,
        "meta_rev_at_epoch": 24,
        "meta_bstar": 0.0019543247,
        "meta_mean_motion_dot": 0.00047329,
        "meta_mean_motion_ddot": -2.45602e-07,
        "tle_line1": "1 66587U 25269B   25336.42831525  .00047329 -24560-6  19543-2 0  9998",
        "tle_line2": "2 66587  51.3575 172.0321 7520347 226.8728  39.3228  2.02231820   242"
      },
      "geometry": {
        "type": "Point",
        "coordinates": [
          -44.44194225418958,
          35.980983383287146
        ]
      }
    },
    {
      "type": "Feature",
      "properties": {
        "norad_id": 66588,
        "name": "STARLINK-36076",
        "group": "last-30-days",
        "lat": 3.66731338347246,
        "lon": -122.34590492812289,
        "alt_km": 353.2472638378722,
        "timestamp": "2025-12-05T19:30:24.351330+00:00",
        "meta_object_name": "STARLINK-36076",
        "meta_object_id": "2025-270A",
        "meta_epoch": "2025-12-05T06:00:02.000160",
        "meta_mean_motion": 15.74051196,
        "meta_eccentricity": 0.00018858,
        "meta_inclination": 42.9988,
        "meta_ra_of_asc_node": 237.1138,
        "meta_arg_of_pericenter": 274.4198,
        "meta_mean_anomaly": 140.5921,
        "meta_ephemeris_type": 0,
        "meta_classification_type": "U",
        "meta_norad_cat_id": 66588,
        "meta_element_set_no": 999,
        "meta_rev_at_epoch": 319,
        "meta_bstar": -0.014694803,
        "meta_mean_motion_dot": -0.01882674,
        "meta_mean_motion_ddot": 0,
        "tle_line1": "1 66588U 25270A   25339.25002315 -.01882674  00000+0 -14695-1 0  9992",
        "tle_line2": "2 66588  42.9988 237.1138 0001885 274.4198 140.5921 15.74051196  3191"
      },
      "geometry": {
        "type": "Point",
        "coordinates": [
          -122.34590492812289,
          3.66731338347246
        ]
      }
    },
    {
      "type": "Feature",
      "properties": {
        "norad_id": 66589,
        "name": "STARLINK-35447",
        "group": "last-30-days",
        "lat": 6.269742717306864,
        "lon": -119.52802825537091,
        "alt_km": 353.03216680724927,
        "timestamp": "2025-12-05T19:30:24.351340+00:00",
        "meta_object_name": "STARLINK-35447",
        "meta_object_id": "2025-270B",
        "meta_epoch": "2025-12-05T06:00:02.000160",
        "meta_mean_motion": 15.74047444,
        "meta_eccentricity": 0.00016976,
        "meta_inclination": 42.9987,
        "meta_ra_of_asc_node": 237.1045,
        "meta_arg_of_pericenter": 272.8938,
        "meta_mean_anomaly": 145.9552,
        "meta_ephemeris_type": 0,
        "meta_classification_type": "U",
        "meta_norad_cat_id": 66589,
        "meta_element_set_no": 999,
        "meta_rev_at_epoch": 330,
        "meta_bstar": -0.014658205,
        "meta_mean_motion_dot": -0.01878169,
        "meta_mean_motion_ddot": 0,
        "tle_line1": "1 66589U 25270B   25339.25002315 -.01878169  00000+0 -14658-1 0  9996",
        "tle_line2": "2 66589  42.9987 237.1045 0001697 272.8938 145.9552 15.74047444  3306"
      },
      "geometry": {
        "type": "Point",
        "coordinates": [
          -119.52802825537091,
          6.269742717306864
        ]
      }
    }
  ]
}